{
  "type": "FeatureCollection",
  "features": [
    {
      "type": "Feature",
      "properties": {
        "norad_id": 34752,
        "name": "COSMOS 2251 DEB",
        "group": "cosmos-2251-debris",
        "lat": 12.07406414254741,
        "lon": 159.29682301708905,
        "alt_km": 550.38493343964,
        "timestamp": "2025-12-21T11:31:43.254538+00:00",
        "meta_object_name": "COSMOS 2251 DEB",
        "meta_object_id": "1993-036ZW",
        "meta_epoch": "2025-12-21T01:11:10.391712",
        "meta_mean_motion": 15.00097116,
        "meta_eccentricity": 0.0047529,
        "meta_inclination": 74.013,
        "meta_ra_of_asc_node": 343.6896,
        "meta_arg_of_pericenter": 109.4224,
        "meta_mean_anomaly": 251.2108,
        "meta_ephemeris_type": 0,
        "meta_classification_type": "U",
        "meta_norad_cat_id": 34752,
        "meta_element_set_no": 999,
        "meta_rev_at_epoch": 89974,
        "meta_bstar": 0.00065685,
        "meta_mean_motion_dot": 8.356e-05,
        "meta_mean_motion_ddot": 0,
        "tle_line1": "1 34752U 93036ZW  25355.04942583  .00008356  00000+0  65685-3 0  9991",
        "tle_line2": "2 34752  74.0130 343.6896 0047529 109.4224 251.2108 15.00097116899742"
      },
      "geometry": {
        "type": "Point",
        "coordinates": [
          159.29682301708905,
          12.07406414254741
        ]
      }
    },
    {
      "type": "Feature",
      "properties": {
        "norad_id": 34754,
        "name": "COSMOS 2251 DEB",
        "group": "cosmos-2251-debris",
        "lat": 64.07290635240058,
        "lon": -112.4748912993312,
        "alt_km": 755.1765396119608,
        "timestamp": "2025-12-21T11:31:43.254549+00:00",
        "meta_object_name": "COSMOS 2251 DEB",
        "meta_object_id": "1993-036ZY",
        "meta_epoch": "2025-12-20T19:07:10.186752",
        "meta_mean_motion": 14.40491841,
        "meta_eccentricity": 0.00298715,
        "meta_inclination": 74.0294,
        "meta_ra_of_asc_node": 212.6992,
        "meta_arg_of_pericenter": 327.2966,
        "meta_mean_anomaly": 157.5526,
        "meta_ephemeris_type": 0,
        "meta_classification_type": "U",
        "meta_norad_cat_id": 34754,
        "meta_element_set_no": 999,
        "meta_rev_at_epoch": 88249,
        "meta_bstar": 0.00013988475,
        "meta_mean_motion_dot": 4.21e-06,
        "meta_mean_motion_ddot": 0,
        "tle_line1": "1 34754U 93036ZY  25354.79664568  .00000421  00000+0  13988-3 0  9992",
        "tle_line2": "2 34754  74.0294 212.6992 0029871 327.2966 157.5526 14.40491841882492"
      },
      "geometry": {
        "type": "Point",
        "coordinates": [
          -112.4748912993312,
          64.07290635240058
        ]
      }
    },
    {
      "type": "Feature",
      "properties": {
        "norad_id": 34755,
        "name": "COSMOS 2251 DEB",
        "group": "cosmos-2251-debris",
        "lat": -43.99869691090619,
        "lon": 112.14204643431736,
        "alt_km": 952.2106247932379,
        "timestamp": "2025-12-21T11:31:43.254559+00:00",
        "meta_object_name": "COSMOS 2251 DEB",
        "meta_object_id": "1993-036ZZ",
        "meta_epoch": "2025-12-20T18:30:29.240064",
        "meta_mean_motion": 13.50572591,
        "meta_eccentricity": 0.04081275,
        "meta_inclination": 73.9255,
        "meta_ra_of_asc_node": 277.1155,
        "meta_arg_of_pericenter": 295.5233,
        "meta_mean_anomaly": 88.1239,
        "meta_ephemeris_type": 0,
        "meta_classification_type": "U",
        "meta_norad_cat_id": 34755,
        "meta_element_set_no": 999,
        "meta_rev_at_epoch": 82632,
        "meta_bstar": 0.00057435404,
        "meta_mean_motion_dot": 5.95e-06,
        "meta_mean_motion_ddot": 0,
        "tle_line1": "1 34755U 93036ZZ  25354.77117176  .00000595  00000+0  57435-3 0  9996",
        "tle_line2": "2 34755  73.9255 277.1155 0408127 295.5233  88.1239 13.50572591826326"
      },
      "geometry": {
        "type": "Point",
        "coordinates": [
          112.14204643431736,
          -43.99869691090619
        ]
      }
    },
    {
      "type": "Feature",
      "properties": {
        "norad_id": 34756,
        "name": "COSMOS 2251 DEB",
        "group": "cosmos-2251-debris",
        "lat": -56.8899343115459,
        "lon": 63.90036465231693,
        "alt_km": 782.3165218133381,
        "timestamp": "2025-12-21T11:31:43.254570+00:00",
        "meta_object_name": "COSMOS 2251 DEB",
        "meta_object_id": "1993-036AAA",
        "meta_epoch": "2025-12-20T05:57:15.725088",
        "meta_mean_motion": 13.67260552,
        "meta_eccentricity": 0.0345561,
        "meta_inclination": 74.0031,
        "meta_ra_of_asc_node": 92.022,
        "meta_arg_of_pericenter": 326.2182,
        "meta_mean_anomaly": 31.7332,
        "meta_ephemeris_type": 0,
        "meta_classification_type": "U",
        "meta_norad_cat_id": 34756,
        "meta_element_set_no": 999,
        "meta_rev_at_epoch": 83524,
        "meta_bstar": 0.00082416,
        "meta_mean_motion_dot": 1.022e-05,
        "meta_mean_motion_ddot": 0,
        "tle_line1": "1 34756U 93036AAA 25354.24809867  .00001022  00000+0  82416-3 0  9997",
        "tle_line2": "2 34756  74.0031  92.0220 0345561 326.2182  31.7332 13.67260552835243"
      },
      "geometry": {
        "type": "Point",
        "coordinates": [
          63.90036465231693,
          -56.8899343115459
        ]
      }
    },
    {
      "type": "Feature",
      "properties": {
        "norad_id": 34758,
        "name": "COSMOS 2251 DEB",
        "group": "cosmos-2251-debris",
        "lat": 47.84882440633612,
        "lon": 87.0860970633773,
        "alt_km": 989.8808135220224,
        "timestamp": "2025-12-21T11:31:43.254580+00:00",
        "meta_object_name": "COSMOS 2251 DEB",
        "meta_object_id": "1993-036AAC",
        "meta_epoch": "2025-12-21T02:05:27.269088",
        "meta_mean_motion": 13.58097876,
        "meta_eccentricity": 0.0382026,
        "meta_inclination": 74.1076,
        "meta_ra_of_asc_node": 286.0629,
        "meta_arg_of_pericenter": 47.8221,
        "meta_mean_anomaly": 315.467,
        "meta_ephemeris_type": 0,
        "meta_classification_type": "U",
        "meta_norad_cat_id": 34758,
        "meta_element_set_no": 999,
        "meta_rev_at_epoch": 83023,
        "meta_bstar": 0.0013759,
        "meta_mean_motion_dot": 1.585e-05,
        "meta_mean_motion_ddot": 0,
        "tle_line1": "1 34758U 93036AAC 25355.08712117  .00001585  00000+0  13759-2 0  9990",
        "tle_line2": "2 34758  74.1076 286.0629 0382026  47.8221 315.4670 13.58097876830238"
      },
      "geometry": {
        "type": "Point",
        "coordinates": [
          87.0860970633773,
          47.84882440633612
        ]
      }
    },
    {
      "type": "Feature",
      "properties": {
        "norad_id": 34760,
        "name": "COSMOS 2251 DEB",
        "group": "cosmos-2251-debris",
        "lat": 29.57967322220706,
        "lon": 97.42741289258547,
        "alt_km": 894.2272293872893,
        "timestamp": "2025-12-21T11:31:43.254591+00:00",
        "meta_object_name": "COSMOS 2251 DEB",
        "meta_object_id": "1993-036AAE",
        "meta_epoch": "2025-12-21T02:27:21.793248",
        "meta_mean_motion": 14.19589207,
        "meta_eccentricity": 0.0097162,
        "meta_inclination": 74.0634,
        "meta_ra_of_asc_node": 287.4354,
        "meta_arg_of_pericenter": 337.7279,
        "meta_mean_anomaly": 39.9901,
        "meta_ephemeris_type": 0,
        "meta_classification_type": "U",
        "meta_norad_cat_id": 34760,
        "meta_element_set_no": 999,
        "meta_rev_at_epoch": 86807,
        "meta_bstar": 0.00035111,
        "meta_mean_motion_dot": 7.51e-06,
        "meta_mean_motion_ddot": 0,
        "tle_line1": "1 34760U 93036AAE 25355.10233557  .00000751  00000+0  35111-3 0  9993",
        "tle_line2": "2 34760  74.0634 287.4354 0097162 337.7279  39.9901 14.19589207868078"
      },
      "geometry": {
        "type": "Point",
        "coordinates": [
          97.42741289258547,
          29.57967322220706
        ]
      }
    },
    {
      "type": "Feature",
      "properties": {
        "norad_id": 34761,
        "name": "COSMOS 2251 DEB",
        "group": "cosmos-2251-debris",
        "lat": -65.01389879813269,
        "lon": -51.23660118079708,
        "alt_km": 771.0846267644038,
        "timestamp": "2025-12-21T11:31:43.254601+00:00",
        "meta_object_name": "COSMOS 2251 DEB",
        "meta_object_id": "1993-036AAF",
        "meta_epoch": "2025-12-20T15:49:12.081504",
        "meta_mean_motion": 14.3807453,
        "meta_eccentricity": 0.00368471,
        "meta_inclination": 74.0284,
        "meta_ra_of_asc_node": 348.1964,
        "meta_arg_of_pericenter": 20.0279,
        "meta_mean_anomaly": 340.2311,
        "meta_ephemeris_type": 0,
        "meta_classification_type": "U",
        "meta_norad_cat_id": 34761,
        "meta_element_set_no": 999,
        "meta_rev_at_epoch": 87763,
        "meta_bstar": 0.00043327505,
        "meta_mean_motion_dot": 1.297e-05,
        "meta_mean_motion_ddot": 0,
        "tle_line1": "1 34761U 93036AAF 25354.65916761  .00001297  00000+0  43328-3 0  9993",
        "tle_line2": "2 34761  74.0284 348.1964 0036847  20.0279 340.2311 14.38074530877631"
      },
      "geometry": {
        "type": "Point",
        "coordinates": [
          -51.23660118079708,
          -65.01389879813269
        ]
      }
    }
  ]
}